{
    "links": {
        "self": "http://www.neowsapp.com/rest/v1/neo/3729138?api_key=iIulBulltgU6a56xZRHN4H3l9WmuAYTsLGpBGhQ2"
    },
    "id": "3729138",
    "neo_reference_id": "3729138",
    "name": "(2015 TL21)",
    "designation": "2015 TL21",
    "nasa_jpl_url": "http://ssd.jpl.nasa.gov/sbdb.cgi?sstr=3729138",
    "absolute_magnitude_h": 26.5,
    "estimated_diameter": {
        "kilometers": {
            "estimated_diameter_min": 0.0133215567,
            "estimated_diameter_max": 0.0297879063
        },
        "meters": {
            "estimated_diameter_min": 13.3215566698,
            "estimated_diameter_max": 29.7879062798
        },
        "miles": {
            "estimated_diameter_min": 0.008277629,
            "estimated_diameter_max": 0.0185093411
        },
        "feet": {
            "estimated_diameter_min": 43.7058959846,
            "estimated_diameter_max": 97.7293544391
        }
    },
    "is_potentially_hazardous_asteroid": false,
    "close_approach_data": [
        {
            "close_approach_date": "2015-10-06",
            "close_approach_date_full": "2015-Oct-06 02:42",
            "epoch_date_close_approach": 1444099320000,
            "relative_velocity": {
                "kilometers_per_second": "15.4998005982",
                "kilometers_per_hour": "55799.2821534844",
                "miles_per_hour": "34671.5039580914"
            },
            "miss_distance": {
                "astronomical": "0.0151754254",
                "lunar": "5.9032404806",
                "kilometers": "2270211.316183898",
                "miles": "1410643.8994498724"
            },
            "orbiting_body": "Earth"
        },
        {
            "close_approach_date": "2066-02-02",
            "close_approach_date_full": "2066-Feb-02 21:48",
            "epoch_date_close_approach": 3032372880000,
            "relative_velocity": {
                "kilometers_per_second": "15.8182175357",
                "kilometers_per_hour": "56945.5831286906",
                "miles_per_hour": "35383.7708057134"
            },
            "miss_distance": {
                "astronomical": "0.0642957917",
                "lunar": "25.0110629713",
                "kilometers": "9618513.488283679",
                "miles": "5976667.1398816102"
            },
            "orbiting_body": "Mars"
        }
    ],
    "orbital_data": {
        "orbit_id": "16",
        "orbit_determination_date": "2019-07-18 07:27:42",
        "first_observation_date": "2015-10-08",
        "last_observation_date": "2015-10-19",
        "data_arc_in_days": 11,
        "observations_used": 89,
        "orbit_uncertainty": "7",
        "minimum_orbit_intersection": ".00488333",
        "jupiter_tisserand_invariant": "3.040",
        "epoch_osculation": "2459000.5",
        "eccentricity": ".6769781997441405",
        "semi_major_axis": "2.603225499889589",
        "inclination": ".5689950759154907",
        "ascending_node_longitude": "220.1940079547212",
        "orbital_period": "1534.143949115914",
        "perihelion_distance": ".8408985874462948",
        "perihelion_argument": "97.95259962450469",
        "aphelion_distance": "4.365552412332883",
        "perihelion_time": "2458798.246848270664",
        "mean_anomaly": "47.46043203085341",
        "mean_motion": ".2346585535258659",
        "equinox": "J2000",
        "orbit_class": {
            "orbit_class_type": "APO",
            "orbit_class_description": "Near-Earth asteroid orbits which cross the Earth’s orbit similar to that of 1862 Apollo",
            "orbit_class_range": "a (semi-major axis) > 1.0 AU; q (perihelion) < 1.017 AU"
        }
    },
    "is_sentry_object": false
}